{
    "links": {
        "self": "http://www.neowsapp.com/rest/v1/neo/3719476?api_key=iIulBulltgU6a56xZRHN4H3l9WmuAYTsLGpBGhQ2"
    },
    "id": "3719476",
    "neo_reference_id": "3719476",
    "name": "(2015 KD23)",
    "designation": "2015 KD23",
    "nasa_jpl_url": "http://ssd.jpl.nasa.gov/sbdb.cgi?sstr=3719476",
    "absolute_magnitude_h": 25.5,
    "estimated_diameter": {
        "kilometers": {
            "estimated_diameter_min": 0.0211132445,
            "estimated_diameter_max": 0.0472106499
        },
        "meters": {
            "estimated_diameter_min": 21.113244479,
            "estimated_diameter_max": 47.2106498806
        },
        "miles": {
            "estimated_diameter_min": 0.0131191578,
            "estimated_diameter_max": 0.0293353287
        },
        "feet": {
            "estimated_diameter_min": 69.2691770164,
            "estimated_diameter_max": 154.8905885541
        }
    },
    "is_potentially_hazardous_asteroid": false,
    "close_approach_data": [
        {
            "close_approach_date": "2015-06-18",
            "close_approach_date_full": "2015-Jun-18 10:00",
            "epoch_date_close_approach": 1434621600000,
            "relative_velocity": {
                "kilometers_per_second": "4.9616210474",
                "kilometers_per_hour": "17861.835770667",
                "miles_per_hour": "11098.6501209458"
            },
            "miss_distance": {
                "astronomical": "0.1034055738",
                "lunar": "40.2247682082",
                "kilometers": "15469253.586607806",
                "miles": "9612148.4574714828"
            },
            "orbiting_body": "Earth"
        }
    ],
    "orbital_data": {
        "orbit_id": "8",
        "orbit_determination_date": "2017-04-06 08:33:38",
        "first_observation_date": "2015-05-20",
        "last_observation_date": "2015-06-15",
        "data_arc_in_days": 26,
        "observations_used": 22,
        "orbit_uncertainty": "8",
        "minimum_orbit_intersection": ".103509",
        "jupiter_tisserand_invariant": "3.608",
        "epoch_osculation": "2457167.5",
        "eccentricity": ".4655165201001893",
        "semi_major_axis": "2.092169292967504",
        "inclination": "2.495128358272159",
        "ascending_node_longitude": "67.5146196028131",
        "orbital_period": "1105.334338985153",
        "perihelion_distance": "1.118229924244798",
        "perihelion_argument": "199.9597847176362",
        "aphelion_distance": "3.066108661690209",
        "perihelion_time": "2457192.532213613792",
        "mean_anomaly": "351.8471754806433",
        "mean_motion": ".3256933104335913",
        "equinox": "J2000",
        "orbit_class": {
            "orbit_class_type": "AMO",
            "orbit_class_description": "Near-Earth asteroid orbits similar to that of 1221 Amor",
            "orbit_class_range": "1.017 AU < q (perihelion) < 1.3 AU"
        }
    },
    "is_sentry_object": false
}